{"type":"FeatureCollection","features":[{"type":"Feature","properties":{"name":"黄岩岛","description":"黄岩岛领海基线","source":"https://www.peopleapp.com/column/30047304700-500005904907"},"geometry":{"type":"Polygon","coordinates":[[[117.848333,15.135],[117.846667,15.123333],[117.843333,15.116667],[117.836667,15.11],[117.825,15.101667],[117.736667,15.105],[117.718333,15.121667],[117.71,15.211667],[117.713333,15.218333],[117.721667,15.223333],[117.731667,15.225],[117.74,15.225],[117.828333,15.16],[117.84,15.15],[117.846667,15.141667],[117.848333,15.135]]]}}]}